FENGYUN 1C DEB          
1 30302U 99025ZP  17344.15610832  .00000282  00000-0  23032-3 0  9993
2 30302  98.5622  48.2974 0129451   9.7109 350.6511 13.93242900551807
